From:	Horizons Ephemeris System <horizons@ssd.jpl.nasa.gov>
Sent:	Friday, December 4, 2020 12:42 PM
Subject:	[Horizons] MAJOR BODY #C(usr={-90.,65.,.600^G}@301)_T(301) (1/1)

 Automated mail xmit by MAIL_REQUEST, PID= 25667 Fri Dec  4 10:42:06 2020
++++++++++++++++++++++++++++++++ (part 1 of 1)  +++++++++++++++++++++++++++++++
*******************************************************************************
 Revised: July 31, 2013             Moon / (Earth)                          301
 
 GEOPHYSICAL DATA (updated 2018-Aug-15):
  Vol. mean radius, km  = 1737.53+-0.03    Mass, x10^22 kg       =    7.349
  Radius (gravity), km  = 1738.0           Surface emissivity    =    0.92
  Radius (IAU), km      = 1737.4           GM, km^3/s^2          = 4902.800066
  Density, g/cm^3       =    3.3437        GM 1-sigma, km^3/s^2  =  +-0.0001  
  V(1,0)                =   +0.21          Surface accel., m/s^2 =    1.62
  Earth/Moon mass ratio = 81.3005690769    Farside crust. thick. = ~80 - 90 km
  Mean crustal density  = 2.97+-.07 g/cm^3 Nearside crust. thick.= 58+-8 km 
  Heat flow, Apollo 15  = 3.1+-.6 mW/m^2   Mean angular diameter = 31'05.2"
  Heat flow, Apollo 17  = 2.2+-.5 mW/m^2   Sid. rot. rate, rad/s = 0.0000026617
  Geometric Albedo      = 0.12             Mean solar day        = 29.5306 d
  Obliquity to orbit    = 6.67 deg         Orbit period          = 27.321582 d
  Semi-major axis, a    = 384400 km        Eccentricity          = 0.05490
  Mean motion, rad/s    = 2.6616995x10^-6  Inclination           = 5.145 deg
  Apsidal period        = 3231.50 d        Nodal period          = 6798.38 d
                                 Perihelion  Aphelion    Mean
  Solar Constant (W/m^2)         1414+-7     1323+-7     1368+-7
  Maximum Planetary IR (W/m^2)   1314        1226        1268
  Minimum Planetary IR (W/m^2)      5.2         5.2         5.2
********************************************************************************
 
 
*******************************************************************************
Ephemeris / MAIL_REQUEST Fri Dec  4 10:42:05 2020 Pasadena, USA  / Horizons
*******************************************************************************
Target body name: Moon (301)                      {source: DE431mx}
Center body name: Moon (301)                      {source: DE431mx}
Center-site name: (user defined site below)
*******************************************************************************
Start time      : A.D. 2020-Jan-01 00:00:00.0000 TDB
Stop  time      : A.D. 2039-Jan-01 00:00:00.0000 TDB
Step-size       : 10000 steps
*******************************************************************************
Center geodetic : 270.000000,65.0000000,0.6000000 {E-lon(deg),Lat(deg),Alt(km)}
Center cylindric: 270.000000,734.510539,1575.1629 {E-lon(deg),Dxy(km),Dz(km)}
Center pole/equ : IAU_MOON                        {East-longitude positive}
Center radii    : 1737.4 x 1737.4 x 1737.4 km     {Equator, meridian, pole}    
Output units    : KM-S
Output type     : GEOMETRIC cartesian states
Output format   : 3 (position, velocity, LT, range, range-rate)
Reference frame : Ecliptic of J2000.0
*******************************************************************************
JDTDB
   X     Y     Z
   VX    VY    VZ
   LT    RG    RR
*******************************************************************************
$$SOE
2463230.028000002 = A.D. 2031-Dec-29 12:40:19.2002 TDB 
   6.805699546531789E+02  2.133680272960231E+02 -1.584910919184789E+03
  -4.890329721859053E-04  1.892731112561306E-03  4.481460448330771E-05
   5.797343974543883E-03  1.738000000000000E+03  7.186426367682975E-20
2463230.722000002 = A.D. 2031-Dec-30 05:19:40.8002 TDB 
   6.423333601619026E+02  3.240363174926332E+02 -1.582103763780661E+03
  -7.836209550935166E-04  1.790734061133939E-03  4.861690576866311E-05
   5.797343974543883E-03  1.738000000000000E+03 -1.596983637262883E-20
2463231.416000002 = A.D. 2031-Dec-30 21:59:02.4002 TDB 
   5.869949567931246E+02  4.272079858641958E+02 -1.579105524502177E+03
  -1.058246505272978E-03  1.643216544224985E-03  5.117445750395255E-05
   5.797343974543884E-03  1.738000000000000E+03  2.395475455894325E-20
2463232.110000002 = A.D. 2031-Dec-31 14:38:24.0002 TDB 
   5.159640479410086E+02  5.202607387565674E+02 -1.575992977440191E+03
  -1.305928063745567E-03  1.453939505965404E-03  5.242137025583845E-05
   5.797343974543884E-03  1.738000000000000E+03 -1.117888546084018E-19
2463232.804000002 = A.D. 2032-Jan-01 07:17:45.6002 TDB 
   4.310487667623188E+02  6.008301613125491E+02 -1.572845853200440E+03
  -1.520372573234835E-03  1.227725016189208E-03  5.232521460689908E-05
   5.797343974543884E-03  1.738000000000000E+03  2.555173819620613E-19
2463233.498000002 = A.D. 2032-Jan-01 23:57:07.2002 TDB 
   3.344099070706665E+02  6.668697647508984E+02 -1.569744798021025E+03
  -1.696135103465404E-03  9.703326410185876E-04  5.088796460273580E-05
   5.797343974543882E-03  1.738000000000000E+03 -7.186426367682977E-20
2463234.192000002 = A.D. 2032-Jan-02 16:36:28.8002 TDB 
   2.285058198807581E+02  7.167028930038539E+02 -1.566769304473549E+03
  -1.828756604847932E-03  6.883121359330651E-04  4.814606180015004E-05
   5.797343974543883E-03  1.738000000000000E+03 -7.186426367682975E-20
2463234.886000002 = A.D. 2032-Jan-03 09:15:50.4002 TDB 
   1.160297931147382E+02  7.490651810362892E+02 -1.563995665489142E+03
  -1.914876357336850E-03  3.888362883122863E-04  4.416957069661580E-05
   5.797343974543884E-03  1.738000000000000E+03  2.395475455894325E-20
2463235.580000002 = A.D. 2032-Jan-04 01:55:12.0002 TDB 
  -1.584816816848864E-01  7.631365016309442E+02 -1.561495006319918E+03
  -1.952316344659883E-03  7.951821852962774E-05  3.906042685711382E-05
   5.797343974543883E-03  1.738000000000000E+03 -1.197737727947162E-20
2463236.274000002 = A.D. 2032-Jan-04 18:34:33.6002 TDB 
  -1.171056071733506E+02  7.585616074342075E+02 -1.559331447927410E+03
  -1.940135509926901E-03 -2.317821831891992E-04  3.294981416699485E-05
   5.797343974543884E-03  1.738000000000000E+03 -3.992459093157209E-21
2463236.968000002 = A.D. 2032-Jan-05 11:13:55.2002 TDB 
  -2.318394945352306E+02  7.354589635264866E+02 -1.557560452034590E+03
  -1.878652617924490E-03 -5.371577603677161E-04  2.599474299938966E-05
   5.797343974543884E-03  1.738000000000000E+03 -5.190196821104371E-20
2463237.662000002 = A.D. 2032-Jan-06 03:53:16.8002 TDB 
  -3.414447933776495E+02  6.944175652730805E+02 -1.556227392804632E+03
  -1.769437242531264E-03 -8.288544896463719E-04  1.837393245814669E-05
   5.797343974543883E-03  1.738000000000000E+03  1.397360682605023E-20
2463238.356000002 = A.D. 2032-Jan-06 20:32:38.4002 TDB 
  -4.431368315447602E+02  6.364818391543574E+02 -1.555366393154731E+03
  -1.615269194774003E-03 -1.099467737064498E-03  1.028312412863422E-05
   5.797343974543882E-03  1.738000000000000E+03  2.235777092168037E-19
2463239.050000002 = A.D. 2032-Jan-07 13:12:00.0002 TDB 
  -5.343322014718066E+02  5.631250231380716E+02 -1.554999455558117E+03
  -1.420067488541524E-03 -1.342129462012907E-03  1.929970476773611E-06
   5.797343974543883E-03  1.738000000000000E+03 -2.083564589241418E-19
2463239.744000002 = A.D. 2032-Jan-08 05:51:21.6002 TDB 
  -6.127142182200655E+02  4.762117106502508E+02 -1.555135908347092E+03
  -1.188790688293266E-03 -1.550681707623810E-03 -6.471351733740738E-06
   5.797343974543884E-03  1.738000000000000E+03 -1.277586909810306E-19
2463240.438000002 = A.D. 2032-Jan-08 22:30:43.2002 TDB 
  -6.762916060382929E+02  3.779505115065375E+02 -1.555772179483260E+03
  -9.273111792978859E-04 -1.719832074051576E-03 -1.470565269788440E-05
   5.797343974543883E-03  1.738000000000000E+03 -1.117888546084018E-19
2463241.132000002 = A.D. 2032-Jan-09 15:10:04.8002 TDB 
  -7.234489419000611E+02  2.708380279658062E+02 -1.556891900894624E+03
  -6.422665307687320E-04 -1.845287328290001E-03 -2.256222085920555E-05
   5.797343974543883E-03  1.738000000000000E+03 -1.596983637262883E-20
2463241.826000002 = A.D. 2032-Jan-10 07:49:26.4002 TDB 
  -7.529875914867580E+02  1.575955587904940E+02 -1.558466338076149E+03
  -3.408916727459467E-04 -1.923861848644207E-03 -2.984015908315501E-05
   5.797343974543883E-03  1.738000000000000E+03  1.357436091673451E-19
2463242.520000002 = A.D. 2032-Jan-11 00:28:48.0002 TDB 
  -7.641561104716923E+02  4.110012396205786E+01 -1.560455131889116E+03
  -3.083606770749582E-05 -1.953558220636283E-03 -3.635344221975228E-05
   5.797343974543883E-03  1.738000000000000E+03  1.277586909810307E-19
2463243.214000002 = A.D. 2032-Jan-11 17:08:09.6002 TDB 
  -7.566693459932246E+02 -7.568845648401430E+01 -1.562807332459524E+03
   2.800295809790831E-04 -1.933617979821588E-03 -4.193558490196236E-05
   5.797343974543884E-03  1.738000000000000E+03  2.395475455894325E-20
2463243.908000002 = A.D. 2032-Jan-12 09:47:31.2002 TDB 
  -7.307157537588861E+02 -1.898025973696444E+02 -1.565462698770022E+03
   5.838122862943806E-04 -1.864541221111259E-03 -4.644382023330008E-05
   5.797343974543885E-03  1.738000000000000E+03  1.596983637262883E-19
2463244.602000002 = A.D. 2032-Jan-13 02:26:52.8002 TDB 
  -6.869527387892093E+02 -2.983422106304228E+02 -1.568353231904776E+03
   8.727964581446983E-04 -1.748074548593580E-03 -4.976270049767274E-05
   5.797343974543884E-03  1.738000000000000E+03 -2.076078728441748E-19
2463245.296000002 = A.D. 2032-Jan-13 19:06:14.4002 TDB 
  -6.264901256772191E+02 -3.985482999932798E+02 -1.571404904854700E+03
   1.139639333505548E-03 -1.587167609171702E-03 -5.180704004633383E-05
   5.797343974543884E-03  1.738000000000000E+03 -5.589442730420092E-20
2463245.990000002 = A.D. 2032-Jan-14 11:45:36.0002 TDB 
  -5.508621605414347E+02 -4.878730308438064E+02 -1.574539547251482E+03
   1.377557265949692E-03 -1.385899221939068E-03 -5.252412877369556E-05
   5.797343974543884E-03  1.738000000000000E+03  1.117888546084018E-19
